NORAD_CAT_ID,OBJECT_NAME,OBJECT_TYPE,EPOCH,MEAN_MOTION,ECCENTRICITY,INCLINATION,RA_OF_ASC_NODE,ARG_OF_PERICENTER,MEAN_ANOMALY,BSTAR,MEAN_MOTION_DOT,MEAN_MOTION_DDOT,TLE_LINE0,TLE_LINE1,TLE_LINE2,SEMIMAJOR_AXIS,PERIOD,APOGEE,PERIGEE,DECAYED
51779.0,STARLINK-3611,PAYLOAD,2023-05-10 05:58:34,15.08840881,0.0001112,53.2162,302.9046,99.122,260.9898,9.3704e-05,1.204e-05,0.0,0 STARLINK-3611,1 51779U 22017M   23130.24900777  .00001204  00000-0  93704-4 0  9990,2 51779  53.2162 302.9046 0001112  99.1220 260.9898 15.08840881 66403,6917.878,95.437,540.512,538.973,0.0
51779.0,STARLINK-3611,PAYLOAD,2023-05-10 18:41:39,15.08844973,0.0001023,53.2165,300.5248,90.8016,269.3093,2.584e-05,1.24e-06,0.0,0 STARLINK-3611,1 51779U 22017M   23130.77892901  .00000124  00000-0  25840-4 0  9993,2 51779  53.2165 300.5248 0001023  90.8016 269.3093 15.08844973 66480,6917.865,95.437,540.438,539.022,0.0
51779.0,STARLINK-3611,PAYLOAD,2023-05-11 04:13:58,15.08842423,0.000104,53.2164,298.7412,91.0544,269.0567,8.1742e-05,1.013e-05,0.0,0 STARLINK-3611,1 51779U 22017M   23131.17636954  .00001013  00000-0  81742-4 0  9993,2 51779  53.2164 298.7412 0001040  91.0544 269.0567 15.08842423 66546,6917.873,95.437,540.457,539.019,0.0
51779.0,STARLINK-3611,PAYLOAD,2023-05-11 13:46:17,15.08838184,0.0001005,53.2162,296.9567,98.8865,261.2241,0.0001157,1.554e-05,0.0,0 STARLINK-3611,1 51779U 22017M   23131.57381226  .00001554  00000-0  11570-3 0  9997,2 51779  53.2162 296.9567 0001005  98.8865 261.2241 15.08838184 68091,6917.886,95.438,540.446,539.056,0.0
51779.0,STARLINK-3611,PAYLOAD,2023-05-11 16:57:03,15.08842173,0.0001039,53.2156,296.3617,90.0469,270.0642,6.958e-05,8.2e-06,0.0,0 STARLINK-3611,1 51779U 22017M   23131.70628914  .00000820  00000-0  69580-4 0  9990,2 51779  53.2156 296.3617 0001039  90.0469 270.0642 15.08842173 66628,6917.874,95.437,540.458,539.02,0.0
51779.0,STARLINK-3611,PAYLOAD,2023-05-12 04:04:45,15.08842684,0.0001048,53.2153,294.2811,92.0599,268.0513,0.0001099,1.462e-05,0.0,0 STARLINK-3611,1 51779U 22017M   23132.16996974  .00001462  00000-0  10990-3 0  9998,2 51779  53.2153 294.2811 0001048  92.0599 268.0513 15.08842684 66692,6917.872,95.437,540.462,539.012,0.0
51779.0,STARLINK-3611,PAYLOAD,2023-05-12 18:23:13,15.08843067,0.0001028,53.2162,291.6034,90.8983,269.2127,7.6685e-05,9.33e-06,0.0,0 STARLINK-3611,1 51779U 22017M   23132.76613085  .00000933  00000-0  76685-4 0  9999,2 51779  53.2162 291.6034 0001028  90.8983 269.2127 15.08843067 68277,6917.871,95.437,540.447,539.025,0.0
51779.0,STARLINK-3611,PAYLOAD,2023-05-13 03:55:32,15.08840103,0.0001067,53.2169,289.8177,90.9851,269.1263,5.2933e-05,5.55e-06,0.0,0 STARLINK-3611,1 51779U 22017M   23133.16357352  .00000555  00000-0  52933-4 0  9996,2 51779  53.2169 289.8177 0001067  90.9851 269.1263 15.08840103 66848,6917.88,95.438,540.483,539.007,0.0
51779.0,STARLINK-3611,PAYLOAD,2023-05-13 16:38:37,15.08844964,0.0001071,53.2167,287.4393,85.6638,274.4477,3.4919e-05,2.68e-06,0.0,0 STARLINK-3611,1 51779U 22017M   23133.69349098  .00000268  00000-0  34919-4 0  9997,2 51779  53.2167 287.4393 0001071  85.6638 274.4477 15.08844964 66923,6917.865,95.437,540.471,538.989,0.0
51779.0,STARLINK-3611,PAYLOAD,2023-05-14 03:46:19,15.0884411,9.82e-05,53.2165,285.3589,88.3869,271.7236,1.9117e-05,1.7e-07,0.0,0 STARLINK-3611,1 51779U 22017M   23134.15717086  .00000017  00000-0  19117-4 0  9990,2 51779  53.2165 285.3589 0000982  88.3869 271.7236 15.08844110 68480,6917.868,95.437,540.412,539.053,0.0
51779.0,STARLINK-3611,PAYLOAD,2023-05-14 13:18:39,15.08830044,0.0001009,53.2162,283.5737,91.6547,268.4561,4.5356e-05,4.34e-06,0.0,0 STARLINK-3611,1 51779U 22017M   23134.55462004  .00000434  00000-0  45356-4 0  9998,2 51779  53.2162 283.5737 0001009  91.6547 268.4561 15.08830044 68545,6917.911,95.438,540.474,539.078,0.0
51779.0,STARLINK-3611,PAYLOAD,2023-05-14 19:40:11,15.08840481,0.000119,53.2164,282.3827,106.025,254.0874,2.9673e-05,1.84e-06,0.0,0 STARLINK-3611,1 51779U 22017M   23134.81957362  .00000184  00000-0  29673-4 0  9999,2 51779  53.2164 282.3827 0001190 106.0250 254.0874 15.08840481 67090,6917.879,95.438,540.567,538.921,0.0
51779.0,STARLINK-3611,PAYLOAD,2023-05-15 13:09:25,15.08836978,0.0001103,53.2171,279.111,107.8975,252.2138,4.1178e-05,3.68e-06,0.0,0 STARLINK-3611,1 51779U 22017M   23135.54821606  .00000368  00000-0  41178-4 0  9999,2 51779  53.2171 279.1110 0001103 107.8975 252.2138 15.08836978 67206,6917.89,95.438,540.518,538.992,0.0
51779.0,STARLINK-3611,PAYLOAD,2023-05-15 16:20:11,15.08840382,0.0001082,53.2164,278.5183,88.1905,271.9211,7.8444e-05,9.61e-06,0.0,0 STARLINK-3611,1 51779U 22017M   23135.68069378  .00000961  00000-0  78444-4 0  9999,2 51779  53.2164 278.5183 0001082  88.1905 271.9211 15.08840382 67227,6917.879,95.438,540.493,538.996,0.0
51779.0,STARLINK-3611,PAYLOAD,2023-05-16 13:00:13,15.08833208,0.0001154,53.2163,274.6549,83.8238,276.2886,6.5324e-05,7.52e-06,0.0,0 STARLINK-3611,1 51779U 22017M   23136.54182059  .00000752  00000-0  65324-4 0  9998,2 51779  53.2163 274.6549 0001154  83.8238 276.2886 15.08833208 68844,6917.901,95.438,540.564,538.968,0.0
51779.0,STARLINK-3611,PAYLOAD,2023-05-16 16:10:59,15.08835992,0.0001147,53.2162,274.06,84.2996,275.8127,8.2882e-05,1.031e-05,0.0,0 STARLINK-3611,1 51779U 22017M   23136.67429873  .00001031  00000-0  82882-4 0  9999,2 51779  53.2162 274.0600 0001147  84.2996 275.8127 15.08835992 67375,6917.893,95.438,540.551,538.964,0.0
51779.0,STARLINK-3611,PAYLOAD,2023-05-17 01:43:17,15.08840969,0.0001123,53.2162,272.274,82.3917,277.7203,4.7837e-05,4.74e-06,0.0,0 STARLINK-3611,1 51779U 22017M   23137.07173611  .00000474  00000-0  47837-4 0  9991,2 51779  53.2162 272.2740 0001123  82.3917 277.7203 15.08840969 68924,6917.877,95.437,540.519,538.966,0.0
51779.0,STARLINK-3611,PAYLOAD,2023-05-17 16:01:46,15.08838976,0.0001235,53.218,269.6011,99.911,260.2021,-6.2423e-06,-3.87e-06,0.0,0 STARLINK-3611,1 51779U 22017M   23137.66790069 -.00000387  00000-0 -62423-5 0  9992,2 51779  53.2180 269.6011 0001235  99.9110 260.2021 15.08838976 67523,6917.884,95.438,540.603,538.894,0.0
51779.0,STARLINK-3611,PAYLOAD,2023-05-18 01:34:05,15.08822972,0.0001223,53.2179,267.8171,104.843,255.2698,0.00018076,2.589e-05,0.0,0 STARLINK-3611,1 51779U 22017M   23138.06534691  .00002589  00000-0  18076-3 0  9991,2 51779  53.2179 267.8171 0001223 104.8430 255.2698 15.08822972 69071,6917.932,95.439,540.644,538.951,0.0
51779.0,STARLINK-3611,PAYLOAD,2023-05-18 12:41:47,15.08836697,0.000108,53.2164,265.7336,85.7368,274.3748,3.203e-05,2.22e-06,0.0,0 STARLINK-3611,1 51779U 22017M   23138.52902246  .00000222  00000-0  32030-4 0  9996,2 51779  53.2164 265.7336 0001080  85.7368 274.3748 15.08836697 69148,6917.89,95.438,540.503,539.008,0.0
51779.0,STARLINK-3611,PAYLOAD,2023-05-19 01:24:52,15.08849409,0.0001227,53.2164,263.3546,100.6488,259.4643,-7.3595e-05,-1.459e-05,0.0,0 STARLINK-3611,1 51779U 22017M   23139.05893711 -.00001459  00000-0 -73595-4 0  9997,2 51779  53.2164 263.3546 0001227 100.6488 259.4643 15.08849409 69220,6917.852,95.437,540.565,538.868,0.0
51779.0,STARLINK-3611,PAYLOAD,2023-05-19 07:46:25,15.0883722,0.0001159,53.2163,262.1651,96.2494,263.863,8.8737e-05,1.125e-05,0.0,0 STARLINK-3611,1 51779U 22017M   23139.32390087  .00001125  00000-0  88737-4 0  9997,2 51779  53.2163 262.1651 0001159  96.2494 263.8630 15.08837220 69261,6917.889,95.438,540.556,538.952,0.0
51779.0,STARLINK-3611,PAYLOAD,2023-05-19 12:32:34,15.08838024,0.0001128,53.2162,261.2728,96.2714,263.8407,9.2801e-05,1.189e-05,0.0,0 STARLINK-3611,1 51779U 22017M   23139.52262058  .00001189  00000-0  92801-4 0  9992,2 51779  53.2162 261.2728 0001128  96.2714 263.8407 15.08838024 67809,6917.886,95.438,540.532,538.971,0.0
51779.0,STARLINK-3611,PAYLOAD,2023-05-20 13:58:43,15.0885022,0.0001088,53.2163,256.5139,110.0439,250.0671,0.00010426,1.372e-05,0.0,0 STARLINK-3611,1 51779U 22017M   23140.58245062  .00001372  00000-0  10426-3 0  9992,2 51779  53.2163 256.5139 0001088 110.0439 250.0671 15.08850220 69453,6917.849,95.437,540.467,538.961,0.0
51779.0,STARLINK-3611,PAYLOAD,2023-05-21 07:27:58,15.0884082,0.00015,53.216,253.2441,97.2667,262.8495,3.4785e-05,2.66e-06,0.0,0 STARLINK-3611,1 51779U 22017M   23141.31109801  .00000266  00000-0  34785-4 0  9990,2 51779  53.2160 253.2441 0001500  97.2667 262.8495 15.08840820 69560,6917.878,95.438,540.781,538.705,0.0
51779.0,STARLINK-3611,PAYLOAD,2023-05-21 10:38:45,15.08832785,0.0001234,53.216,252.6484,97.895,262.2182,-4.518e-05,-1.007e-05,0.0,0 STARLINK-3611,1 51779U 22017M   23141.44358499 -.00001007  00000-0 -45180-4 0  9990,2 51779  53.2160 252.6484 0001234  97.8950 262.2182 15.08832785 68090,6917.902,95.438,540.621,538.914,0.0
51779.0,STARLINK-3611,PAYLOAD,2023-05-21 13:49:31,15.0883656,0.0001075,53.2161,252.055,94.1357,265.9758,-2.4897e-05,-6.84e-06,0.0,0 STARLINK-3611,1 51779U 22017M   23141.57606224 -.00000684  00000-0 -24897-4 0  9998,2 51779  53.2161 252.0550 0001075  94.1357 265.9758 15.08836560 69605,6917.891,95.438,540.5,539.012,0.0
51779.0,STARLINK-3611,PAYLOAD,2023-05-22 13:40:18,15.08841863,0.0001123,53.2158,247.595,88.2283,271.8837,3.2687e-05,2.32e-06,0.0,0 STARLINK-3611,1 51779U 22017M   23142.56965886  .00000232  00000-0  32687-4 0  9993,2 51779  53.2158 247.5950 0001123  88.2283 271.8837 15.08841863 68267,6917.875,95.437,540.517,538.963,0.0
51779.0,STARLINK-3611,PAYLOAD,2023-05-23 11:55:41,15.08886333,0.0001361,53.216,243.431,80.3456,279.769,-0.00068219,-0.00011142,0.0,0 STARLINK-3611,1 51779U 22017M   23143.49700622 -.00011142  00000-0 -68219-3 0  9994,2 51779  53.2160 243.4310 0001361  80.3456 279.7690 15.08886333 69899,6917.739,95.435,540.545,538.662,0.0
51779.0,STARLINK-3611,PAYLOAD,2023-05-23 13:31:06,15.08835148,0.0001135,53.2161,243.1332,96.4501,263.662,0.00010785,1.429e-05,0.0,0 STARLINK-3611,1 51779U 22017M   23143.56326404  .00001429  00000-0  10785-3 0  9994,2 51779  53.2161 243.1332 0001135  96.4501 263.6620 15.08835148 69904,6917.895,95.438,540.545,538.975,0.0
